{"type": "FeatureCollection", "features": [ {"type": "Feature", "properties": {"norad_id": 36047, "name": "COSMOS 2251 DEB", "group": "cosmos-2251-debris", "lat": 34.9116690052883, "lon": -26.58673730797823, "alt_km": 571.89611458118, "timestamp": "2025-12-18T19:29:52.939291+00:00", "meta": {"OBJECT_NAME": "COSMOS 2251 DEB", "OBJECT_ID": "1993-036AXJ", "EPOCH": "2025-12-18T04:53:35.477376", "MEAN_MOTION": 14.9621864, "ECCENTRICITY": 0.00084577, "INCLINATION": 74.0358, "RA_OF_ASC_NODE": 323.1177, "ARG_OF_PERICENTER": 350.3843, "MEAN_ANOMALY": 9.7178, "EPHEMERIS_TYPE": 0, "CLASSIFICATION_TYPE": "U", "NORAD_CAT_ID": 36047, "ELEMENT_SET_NO": 999, "REV_AT_EPOCH": 66021, "BSTAR": 0.0023104884, "MEAN_MOTION_DOT": 0.00026146, "MEAN_MOTION_DDOT": 0}, "tle": {"line1": "1 36047U 93036AXJ 25352.20388284  .00026146  00000+0  23105-2 0  9994", "line2": "2 36047  74.0358 323.1177 0008457 350.3843   9.7178 14.96218640660211"}}, "geometry": {"type": "Point", "coordinates": [-26.58673730797823, 34.9116690052883]}}, {"type": "Feature", "properties": {"norad_id": 36048, "name": "COSMOS 2251 DEB", "group": "cosmos-2251-debris", "lat": 43.91496632310975, "lon": 92.14136288018706, "alt_km": 779.160328886881, "timestamp": "2025-12-18T19:29:52.939301+00:00", "meta": {"OBJECT_NAME": "COSMOS 2251 DEB", "OBJECT_ID": "1993-036AXK", "EPOCH": "2025-12-18T06:13:09.506784", "MEAN_MOTION": 14.37861852, "ECCENTRICITY": 0.00268522, "INCLINATION": 74.057, "RA_OF_ASC_NODE": 289.134, "ARG_OF_PERICENTER": 337.964, "MEAN_ANOMALY": 172.881, "EPHEMERIS_TYPE": 0, "CLASSIFICATION_TYPE": "U", "NORAD_CAT_ID": 36048, "ELEMENT_SET_NO": 999, "REV_AT_EPOCH": 85581, "BSTAR": 0.00023437473, "MEAN_MOTION_DOT": 6.84e-06, "MEAN_MOTION_DDOT": 0}, "tle": {"line1": "1 36048U 93036AXK 25352.25913781  .00000684  00000+0  23437-3 0  9994", "line2": "2 36048  74.0570 289.1340 0026852 337.9640 172.8810 14.37861852855817"}}, "geometry": {"type": "Point", "coordinates": [92.14136288018706, 43.91496632310975]}}, {"type": "Feature", "properties": {"norad_id": 36049, "name": "COSMOS 2251 DEB", "group": "cosmos-2251-debris", "lat": 48.328724013641946, "lon": 126.32037778741099, "alt_km": 687.2530934089882, "timestamp": "2025-12-18T19:29:52.939310+00:00", "meta": {"OBJECT_NAME": "COSMOS 2251 DEB", "OBJECT_ID": "1993-036AXL", "EPOCH": "2025-12-14T15:06:03.977280", "MEAN_MOTION": 14.62178283, "ECCENTRICITY": 0.00106433, "INCLINATION": 74.0297, "RA_OF_ASC_NODE": 115.562, "ARG_OF_PERICENTER": 202.4764, "MEAN_ANOMALY": 157.5938, "EPHEMERIS_TYPE": 0, "CLASSIFICATION_TYPE": "U", "NORAD_CAT_ID": 36049, "ELEMENT_SET_NO": 999, "REV_AT_EPOCH": 85392, "BSTAR": 0.0012373854, "MEAN_MOTION_DOT": 6.209e-05, "MEAN_MOTION_DDOT": 0}, "tle": {"line1": "1 36049U 93036AXL 25348.62921270  .00006209  00000+0  12374-2 0  9999", "line2": "2 36049  74.0297 115.5620 0010643 202.4764 157.5938 14.62178283853929"}}, "geometry": {"type": "Point", "coordinates": [126.32037778741099, 48.328724013641946]}}, {"type": "Feature", "properties": {"norad_id": 36050, "name": "COSMOS 2251 DEB", "group": "cosmos-2251-debris", "lat": -65.79499662480427, "lon": 41.230115651896526, "alt_km": 509.3614112236219, "timestamp": "2025-12-18T19:29:52.939320+00:00", "meta": {"OBJECT_NAME": "COSMOS 2251 DEB", "OBJECT_ID": "1993-036AXM", "EPOCH": "2025-12-15T21:35:48.459552", "MEAN_MOTION": 15.01080492, "ECCENTRICITY": 0.00887608, "INCLINATION": 74.0305, "RA_OF_ASC_NODE": 187.588, "ARG_OF_PERICENTER": 266.4769, "MEAN_ANOMALY": 92.6264, "EPHEMERIS_TYPE": 0, "CLASSIFICATION_TYPE": "U", "NORAD_CAT_ID": 36050, "ELEMENT_SET_NO": 999, "REV_AT_EPOCH": 67082, "BSTAR": 0.00042445305, "MEAN_MOTION_DOT": 5.866e-05, "MEAN_MOTION_DDOT": 0}, "tle": {"line1": "1 36050U 93036AXM 25349.89986643  .00005866  00000+0  42445-3 0  9997", "line2": "2 36050  74.0305 187.5880 0088760 266.4769  92.6264 15.01080492670823"}}, "geometry": {"type": "Point", "coordinates": [41.230115651896526, -65.79499662480427]}}, {"type": "Feature", "properties": {"norad_id": 36053, "name": "COSMOS 2251 DEB", "group": "cosmos-2251-debris", "lat": -70.72045347565799, "lon": 85.20921423222467, "alt_km": 731.4829673450049, "timestamp": "2025-12-18T19:29:52.939330+00:00", "meta": {"OBJECT_NAME": "COSMOS 2251 DEB", "OBJECT_ID": "1993-036AXQ", "EPOCH": "2025-12-17T02:40:20.863776", "MEAN_MOTION": 14.57233829, "ECCENTRICITY": 0.00325437, "INCLINATION": 73.8701, "RA_OF_ASC_NODE": 144.2965, "ARG_OF_PERICENTER": 91.8963, "MEAN_ANOMALY": 268.5928, "EPHEMERIS_TYPE": 0, "CLASSIFICATION_TYPE": "U", "NORAD_CAT_ID": 36053, "ELEMENT_SET_NO": 999, "REV_AT_EPOCH": 87508, "BSTAR": 0.001194595, "MEAN_MOTION_DOT": 5.411e-05, "MEAN_MOTION_DDOT": 0}, "tle": {"line1": "1 36053U 93036AXQ 25351.11135259  .00005411  00000+0  11946-2 0  9994", "line2": "2 36053  73.8701 144.2965 0032543  91.8963 268.5928 14.57233829875081"}}, "geometry": {"type": "Point", "coordinates": [85.20921423222467, -70.72045347565799]}}, {"type": "Feature", "properties": {"norad_id": 36058, "name": "COSMOS 2251 DEB", "group": "cosmos-2251-debris", "lat": 70.75523610463662, "lon": 77.03410931685038, "alt_km": 682.1547651438159, "timestamp": "2025-12-18T19:29:52.939341+00:00", "meta": {"OBJECT_NAME": "COSMOS 2251 DEB", "OBJECT_ID": "1993-036AXV", "EPOCH": "2025-12-16T09:31:35.831136", "MEAN_MOTION": 14.58710964, "ECCENTRICITY": 0.00443273, "INCLINATION": 74.0236, "RA_OF_ASC_NODE": 26.4887, "ARG_OF_PERICENTER": 159.9009, "MEAN_ANOMALY": 200.3914, "EPHEMERIS_TYPE": 0, "CLASSIFICATION_TYPE": "U", "NORAD_CAT_ID": 36058, "ELEMENT_SET_NO": 999, "REV_AT_EPOCH": 66164, "BSTAR": 0.00034845634, "MEAN_MOTION_DOT": 1.618e-05, "MEAN_MOTION_DDOT": 0}, "tle": {"line1": "1 36058U 93036AXV 25350.39694249  .00001618  00000+0  34846-3 0  9997", "line2": "2 36058  74.0236  26.4887 0044327 159.9009 200.3914 14.58710964661641"}}, "geometry": {"type": "Point", "coordinates": [77.03410931685038, 70.75523610463662]}}, {"type": "Feature", "properties": {"norad_id": 36060, "name": "COSMOS 2251 DEB", "group": "cosmos-2251-debris", "lat": -21.565485222077413, "lon": -143.19418644987238, "alt_km": 746.3412999477214, "timestamp": "2025-12-18T19:29:52.939374+00:00", "meta": {"OBJECT_NAME": "COSMOS 2251 DEB", "OBJECT_ID": "1993-036AXX", "EPOCH": "2025-12-17T21:57:23.689728", "MEAN_MOTION": 14.42010986, "ECCENTRICITY": 0.00154512, "INCLINATION": 74.0283, "RA_OF_ASC_NODE": 224.9692, "ARG_OF_PERICENTER": 321.2881, "MEAN_ANOMALY": 38.7166, "EPHEMERIS_TYPE": 0, "CLASSIFICATION_TYPE": "U", "NORAD_CAT_ID": 36060, "ELEMENT_SET_NO": 999, "REV_AT_EPOCH": 85084, "BSTAR": 0.00025663889, "MEAN_MOTION_DOT": 8.17e-06, "MEAN_MOTION_DDOT": 0}, "tle": {"line1": "1 36060U 93036AXX 25351.91485752  .00000817  00000+0  25664-3 0  9994", "line2": "2 36060  74.0283 224.9692 0015451 321.2881  38.7166 14.42010986850847"}}, "geometry": {"type": "Point", "coordinates": [-143.19418644987238, -21.565485222077413]}}, {"type": "Feature", "properties": {"norad_id": 36061, "name": "COSMOS 2251 DEB", "group": "cosmos-2251-debris", "lat": -21.692395214024955, "lon": -17.896497955142845, "alt_km": 787.5742906849482, "timestamp": "2025-12-18T19:29:52.939386+00:00", "meta": {"OBJECT_NAME": "COSMOS 2251 DEB", "OBJECT_ID": "1993-036AXY", "EPOCH": "2025-12-15T17:55:08.095872", "MEAN_MOTION": 14.33713146, "ECCENTRICITY": 0.00367991, "INCLINATION": 74.0242, "RA_OF_ASC_NODE": 354.2562, "ARG_OF_PERICENTER": 81.2237, "MEAN_ANOMALY": 279.3079, "EPHEMERIS_TYPE": 0, "CLASSIFICATION_TYPE": "U", "NORAD_CAT_ID": 36061, "ELEMENT_SET_NO": 999, "REV_AT_EPOCH": 65147, "BSTAR": 0.00027590632, "MEAN_MOTION_DOT": 7.46e-06, "MEAN_MOTION_DDOT": 0}, "tle": {"line1": "1 36061U 93036AXY 25349.74662148  .00000746  00000+0  27591-3 0  9991", "line2": "2 36061  74.0242 354.2562 0036799  81.2237 279.3079 14.33713146651474"}}, "geometry": {"type": "Point", "coordinates": [-17.896497955142845, -21.692395214024955]}}, {"type": "Feature", "properties": {"norad_id": 36073, "name": "COSMOS 2251 DEB", "group": "cosmos-2251-debris", "lat": 70.22632589602982, "lon": 78.63762847811897, "alt_km": 766.2343535202053, "timestamp": "2025-12-18T19:29:52.939396+00:00", "meta": {"OBJECT_NAME": "COSMOS 2251 DEB", "OBJECT_ID": "1993-036AYL", "EPOCH": "2025-12-18T03:58:06.481920", "MEAN_MOTION": 14.34959898, "ECCENTRICITY": 0.00240895, "INCLINATION": 74.0326, "RA_OF_ASC_NODE": 312.6126, "ARG_OF_PERICENTER": 19.0207, "MEAN_ANOMALY": 341.1839, "EPHEMERIS_TYPE": 0, "CLASSIFICATION_TYPE": "U", "NORAD_CAT_ID": 36073, "ELEMENT_SET_NO": 999, "REV_AT_EPOCH": 70285, "BSTAR": 0.0001893667, "MEAN_MOTION_DOT": 5.14e-06, "MEAN_MOTION_DDOT": 0}, "tle": {"line1": "1 36073U 93036AYL 25352.16535280  .00000514  00000+0  18937-3 0  9997", "line2": "2 36073  74.0326 312.6126 0024089  19.0207 341.1839 14.34959898702857"}}, "geometry": {"type": "Point", "coordinates": [78.63762847811897, 70.22632589602982]}}, {"type": "Feature", "properties": {"norad_id": 36074, "name": "COSMOS 2251 DEB", "group": "cosmos-2251-debris", "lat": 64.96264782218955, "lon": 7.088345700550202, "alt_km": 710.365186386889, "timestamp": "2025-12-18T19:29:52.939406+00:00", "meta": {"OBJECT_NAME": "COSMOS 2251 DEB", "OBJECT_ID": "1993-036AYM", "EPOCH": "2025-12-17T04:55:34.739616", "MEAN_MOTION": 14.43760583, "ECCENTRICITY": 0.00415505, "INCLINATION": 73.9924, "RA_OF_ASC_NODE": 332.1608, "ARG_OF_PERICENTER": 62.4035, "MEAN_ANOMALY": 298.1332, "EPHEMERIS_TYPE": 0, "CLASSIFICATION_TYPE": "U", "NORAD_CAT_ID": 36074, "ELEMENT_SET_NO": 999, "REV_AT_EPOCH": 85974, "BSTAR": 0.00075567049, "MEAN_MOTION_DOT": 2.571e-05, "MEAN_MOTION_DDOT": 0}, "tle": {"line1": "1 36074U 93036AYM 25351.20526319  .00002571  00000+0  75567-3 0  9992", "line2": "2 36074  73.9924 332.1608 0041550  62.4035 298.1332 14.43760583859746"}}, "geometry": {"type": "Point", "coordinates": [7.088345700550202, 64.96264782218955]}}]}